[{"OBJECT_NAME":"OBJECT H","OBJECT_ID":"2023-091H","EPOCH":"2026-03-09T22:34:46.487712","MEAN_MOTION":15.26380881,"ECCENTRICITY":0.00117854,"INCLINATION":97.5166,"RA_OF_ASC_NODE":131.4381,"ARG_OF_PERICENTER":104.1062,"MEAN_ANOMALY":256.1487,"EPHEMERIS_TYPE":0,"CLASSIFICATION_TYPE":"U","NORAD_CAT_ID":57173,"ELEMENT_SET_NO":999,"REV_AT_EPOCH":14915,"BSTAR":0.00056321781,"MEAN_MOTION_DOT":0.00014617,"MEAN_MOTION_DDOT":0},{"OBJECT_NAME":"YAOGAN-43 03B","OBJECT_ID":"2024-190B","EPOCH":"2026-03-09T13:02:57.184224","MEAN_MOTION":15.23292973,"ECCENTRICITY":0.00065493,"INCLINATION":34.9874,"RA_OF_ASC_NODE":104.3622,"ARG_OF_PERICENTER":178.8126,"MEAN_ANOMALY":181.2605,"EPHEMERIS_TYPE":0,"CLASSIFICATION_TYPE":"U","NORAD_CAT_ID":61618,"ELEMENT_SET_NO":999,"REV_AT_EPOCH":7666,"BSTAR":0.00046413742,"MEAN_MOTION_DOT":0.00011265,"MEAN_MOTION_DDOT":0}]
